[{"OBJECT_NAME":"OBJECT D","OBJECT_ID":"2024-173D","EPOCH":"2026-03-09T23:30:29.956896","MEAN_MOTION":15.27005733,"ECCENTRICITY":0.00090093,"INCLINATION":97.3606,"RA_OF_ASC_NODE":149.3901,"ARG_OF_PERICENTER":241.6081,"MEAN_ANOMALY":118.425,"EPHEMERIS_TYPE":0,"CLASSIFICATION_TYPE":"U","NORAD_CAT_ID":61230,"ELEMENT_SET_NO":999,"REV_AT_EPOCH":8130,"BSTAR":0.00072064626,"MEAN_MOTION_DOT":0.00019078,"MEAN_MOTION_DDOT":0},{"OBJECT_NAME":"STARLINK-35977","OBJECT_ID":"2025-270S","EPOCH":"2026-03-09T23:19:20.348256","MEAN_MOTION":15.27607303,"ECCENTRICITY":0.00013156,"INCLINATION":43.002,"RA_OF_ASC_NODE":54.1796,"ARG_OF_PERICENTER":237.2277,"MEAN_ANOMALY":122.8448,"EPHEMERIS_TYPE":0,"CLASSIFICATION_TYPE":"U","NORAD_CAT_ID":66604,"ELEMENT_SET_NO":999,"REV_AT_EPOCH":1775,"BSTAR":0.001399044,"MEAN_MOTION_DOT":0.0003847,"MEAN_MOTION_DDOT":0}]
